[Satellite]
VERSION=1.1
NAME=TIANTONG-1 1
NICKNAME=TIANTONG-1 1
TLE1=1 41725U 16048A   17184.20955194 -.00000324  00000-0  00000-0 0  9994
TLE2=2 41725   4.5626 325.3507 0001625  73.9418  58.9240  1.00267621  3472
